{"type": "FeatureCollection", "features": [{"type": "Feature", "properties": {"norad_id": 26766, "name": "INTELSAT 10 (IS-10)", "group": "intelsat", "lat": -7.506208539333565, "lon": -59.33687705690323, "alt_km": 36092.880566720654, "timestamp": "2025-12-27T08:36:18.033451+00:00", "meta": {"OBJECT_NAME": "INTELSAT 10 (IS-10)", "OBJECT_ID": "2001-019A", "EPOCH": "2025-12-27T03:05:42.630432", "MEAN_MOTION": 0.99071727, "ECCENTRICITY": 0.0008093, "INCLINATION": 8.6618, "RA_OF_ASC_NODE": 61.0103, "ARG_OF_PERICENTER": 230.2293, "MEAN_ANOMALY": 287.814, "EPHEMERIS_TYPE": 0, "CLASSIFICATION_TYPE": "U", "NORAD_CAT_ID": 26766, "ELEMENT_SET_NO": 999, "REV_AT_EPOCH": 4387, "BSTAR": 0, "MEAN_MOTION_DOT": 6.4e-07, "MEAN_MOTION_DDOT": 0}, "tle": {"line1": "1 26766U 01019A   25361.12896563  .00000064  00000+0  00000+0 0  9993", "line2": "2 26766   8.6618  61.0103 0008093 230.2293 287.8140  0.99071727 43874"}}, "geometry": {"type": "Point", "coordinates": [-59.33687705690323, -7.506208539333565]}}, {"type": "Feature", "properties": {"norad_id": 26900, "name": "INTELSAT 902 (IS-902)", "group": "intelsat", "lat": 5.586481202174291, "lon": 174.92721067735036, "alt_km": 35786.56833242691, "timestamp": "2025-12-27T08:36:18.033476+00:00", "meta": {"OBJECT_NAME": "INTELSAT 902 (IS-902)", "OBJECT_ID": "2001-039A", "EPOCH": "2025-12-15T13:09:02.081664", "MEAN_MOTION": 1.0027087, "ECCENTRICITY": 0.00045028, "INCLINATION": 5.6536, "RA_OF_ASC_NODE": 74.0372, "ARG_OF_PERICENTER": 189.6359, "MEAN_ANOMALY": 327.9329, "EPHEMERIS_TYPE": 0, "CLASSIFICATION_TYPE": "U", "NORAD_CAT_ID": 26900, "ELEMENT_SET_NO": 999, "REV_AT_EPOCH": 8885, "BSTAR": 0, "MEAN_MOTION_DOT": -2.65e-06, "MEAN_MOTION_DDOT": 0}, "tle": {"line1": "1 26900U 01039A   25349.54794076 -.00000265  00000+0  00000+0 0  9997", "line2": "2 26900   5.6536  74.0372 0004502 189.6359 327.9329  1.00270870 88858"}}, "geometry": {"type": "Point", "coordinates": [174.92721067735036, 5.586481202174291]}}, {"type": "Feature", "properties": {"norad_id": 27380, "name": "INTELSAT 904 (IS-904)", "group": "intelsat", "lat": 5.478305207900286, "lon": -166.16559401437732, "alt_km": 35790.46242114764, "timestamp": "2025-12-27T08:36:18.033493+00:00", "meta": {"OBJECT_NAME": "INTELSAT 904 (IS-904)", "OBJECT_ID": "2002-007A", "EPOCH": "2025-12-27T02:23:21.689376", "MEAN_MOTION": 1.00272196, "ECCENTRICITY": 0.0002129, "INCLINATION": 6.4885, "RA_OF_ASC_NODE": 71.2651, "ARG_OF_PERICENTER": 247.8595, "MEAN_ANOMALY": 141.0735, "EPHEMERIS_TYPE": 0, "CLASSIFICATION_TYPE": "U", "NORAD_CAT_ID": 27380, "ELEMENT_SET_NO": 999, "REV_AT_EPOCH": 5004, "BSTAR": 0, "MEAN_MOTION_DOT": -2.06e-06, "MEAN_MOTION_DDOT": 0}, "tle": {"line1": "1 27380U 02007A   25361.09955659 -.00000206  00000+0  00000+0 0  9991", "line2": "2 27380   6.4885  71.2651 0002129 247.8595 141.0735  1.00272196 50047"}}, "geometry": {"type": "Point", "coordinates": [-166.16559401437732, 5.478305207900286]}}, {"type": "Feature", "properties": {"norad_id": 27426, "name": "DIRECTV 5 (TEMPO 1)", "group": "intelsat", "lat": 2.7207762616800424, "lon": 114.949252465479, "alt_km": 35800.125309527524, "timestamp": "2025-12-27T08:36:18.033507+00:00", "meta": {"OBJECT_NAME": "DIRECTV 5 (TEMPO 1)", "OBJECT_ID": "2002-023A", "EPOCH": "2025-12-26T13:17:03.638976", "MEAN_MOTION": 1.00271439, "ECCENTRICITY": 0.0003446, "INCLINATION": 4.4354, "RA_OF_ASC_NODE": 77.4895, "ARG_OF_PERICENTER": 206.4307, "MEAN_ANOMALY": 260.5228, "EPHEMERIS_TYPE": 0, "CLASSIFICATION_TYPE": "U", "NORAD_CAT_ID": 27426, "ELEMENT_SET_NO": 999, "REV_AT_EPOCH": 8639, "BSTAR": 0, "MEAN_MOTION_DOT": -3.7e-07, "MEAN_MOTION_DDOT": 0}, "tle": {"line1": "1 27426U 02023A   25360.55351434 -.00000037  00000+0  00000+0 0  9993", "line2": "2 27426   4.4354  77.4895 0003446 206.4307 260.5228  1.00271439 86390"}}, "geometry": {"type": "Point", "coordinates": [114.949252465479, 2.7207762616800424]}}, {"type": "Feature", "properties": {"norad_id": 27438, "name": "INTELSAT 905 (IS-905)", "group": "intelsat", "lat": 1.7668854240902385, "lon": 87.9084300379516, "alt_km": 35796.46856636275, "timestamp": "2025-12-27T08:36:18.033531+00:00", "meta": {"OBJECT_NAME": "INTELSAT 905 (IS-905)", "OBJECT_ID": "2002-027A", "EPOCH": "2025-12-23T05:41:27.377952", "MEAN_MOTION": 1.00273243, "ECCENTRICITY": 0.00027491, "INCLINATION": 6.3102, "RA_OF_ASC_NODE": 71.9349, "ARG_OF_PERICENTER": 206.5226, "MEAN_ANOMALY": 121.7385, "EPHEMERIS_TYPE": 0, "CLASSIFICATION_TYPE": "U", "NORAD_CAT_ID": 27438, "ELEMENT_SET_NO": 999, "REV_AT_EPOCH": 4959, "BSTAR": 0, "MEAN_MOTION_DOT": 1.12e-06, "MEAN_MOTION_DDOT": 0}, "tle": {"line1": "1 27438U 02027A   25357.23712243  .00000112  00000+0  00000+0 0  9993", "line2": "2 27438   6.3102  71.9349 0002749 206.5226 121.7385  1.00273243 49592"}}, "geometry": {"type": "Point", "coordinates": [87.9084300379516, 1.7668854240902385]}}, {"type": "Feature", "properties": {"norad_id": 27445, "name": "GALAXY 3C (G-3C)", "group": "intelsat", "lat": 2.5407422811531886, "lon": 130.24994492823168, "alt_km": 35782.661779142705, "timestamp": "2025-12-27T08:36:18.033551+00:00", "meta": {"OBJECT_NAME": "GALAXY 3C (G-3C)", "OBJECT_ID": "2002-030A", "EPOCH": "2025-12-26T06:43:38.713152", "MEAN_MOTION": 1.00271267, "ECCENTRICITY": 9.7e-05, "INCLINATION": 3.2955, "RA_OF_ASC_NODE": 80.3601, "ARG_OF_PERICENTER": 86.5436, "MEAN_ANOMALY": 294.1805, "EPHEMERIS_TYPE": 0, "CLASSIFICATION_TYPE": "U", "NORAD_CAT_ID": 27445, "ELEMENT_SET_NO": 999, "REV_AT_EPOCH": 4476, "BSTAR": 0, "MEAN_MOTION_DOT": -1.32e-06, "MEAN_MOTION_DDOT": 0}, "tle": {"line1": "1 27445U 02030A   25360.28030918 -.00000132  00000+0  00000+0 0  9999", "line2": "2 27445   3.2955  80.3601 0000970  86.5436 294.1805  1.00271267 44760"}}, "geometry": {"type": "Point", "coordinates": [130.24994492823168, 2.5407422811531886]}}, {"type": "Feature", "properties": {"norad_id": 27513, "name": "INTELSAT 906 (IS-906)", "group": "intelsat", "lat": -3.0350698055061, "lon": -70.81361112818553, "alt_km": 35761.04508897028, "timestamp": "2025-12-27T08:36:18.033565+00:00", "meta": {"OBJECT_NAME": "INTELSAT 906 (IS-906)", "OBJECT_ID": "2002-041A", "EPOCH": "2025-12-26T18:28:14.405088", "MEAN_MOTION": 1.00271072, "ECCENTRICITY": 0.0006168, "INCLINATION": 5.3657, "RA_OF_ASC_NODE": 75.0649, "ARG_OF_PERICENTER": 203.0067, "MEAN_ANOMALY": 158.6263, "EPHEMERIS_TYPE": 0, "CLASSIFICATION_TYPE": "U", "NORAD_CAT_ID": 27513, "ELEMENT_SET_NO": 999, "REV_AT_EPOCH": 8530, "BSTAR": 0, "MEAN_MOTION_DOT": 3.3e-07, "MEAN_MOTION_DDOT": 0}, "tle": {"line1": "1 27513U 02041A   25360.76961117  .00000033  00000+0  00000+0 0  9993", "line2": "2 27513   5.3657  75.0649 0006168 203.0067 158.6263  1.00271072 85303"}}, "geometry": {"type": "Point", "coordinates": [-70.81361112818553, -3.0350698055061]}}, {"type": "Feature", "properties": {"norad_id": 27954, "name": "GALAXY 13 (HORIZONS-1)", "group": "intelsat", "lat": -0.1712492506760334, "lon": 75.14494002378389, "alt_km": 35794.93397128656, "timestamp": "2025-12-27T08:36:18.033577+00:00", "meta": {"OBJECT_NAME": "GALAXY 13 (HORIZONS-1)", "OBJECT_ID": "2003-044A", "EPOCH": "2025-12-27T02:00:56.333376", "MEAN_MOTION": 1.00272762, "ECCENTRICITY": 0.0002288, "INCLINATION": 0.974, "RA_OF_ASC_NODE": 86.2856, "ARG_OF_PERICENTER": 188.2728, "MEAN_ANOMALY": 61.471, "EPHEMERIS_TYPE": 0, "CLASSIFICATION_TYPE": "U", "NORAD_CAT_ID": 27954, "ELEMENT_SET_NO": 999, "REV_AT_EPOCH": 4484, "BSTAR": 0, "MEAN_MOTION_DOT": 1.55e-06, "MEAN_MOTION_DDOT": 0}, "tle": {"line1": "1 27954U 03044A   25361.08398534  .00000155  00000+0  00000+0 0  9994", "line2": "2 27954   0.9740  86.2856 0002288 188.2728  61.4710  1.00272762 44846"}}, "geometry": {"type": "Point", "coordinates": [75.14494002378389, -0.1712492506760334]}}, {"type": "Feature", "properties": {"norad_id": 28358, "name": "INTELSAT 10-02", "group": "intelsat", "lat": -0.004967770991842617, "lon": -135.81632466483256, "alt_km": 35785.44011883833, "timestamp": "2025-12-27T08:36:18.033589+00:00", "meta": {"OBJECT_NAME": "INTELSAT 10-02", "OBJECT_ID": "2004-022A", "EPOCH": "2025-12-27T02:43:29.755776", "MEAN_MOTION": 1.00270144, "ECCENTRICITY": 0.0001271, "INCLINATION": 0.0165, "RA_OF_ASC_NODE": 51.4001, "ARG_OF_PERICENTER": 251.2068, "MEAN_ANOMALY": 193.1572, "EPHEMERIS_TYPE": 0, "CLASSIFICATION_TYPE": "U", "NORAD_CAT_ID": 28358, "ELEMENT_SET_NO": 999, "REV_AT_EPOCH": 7883, "BSTAR": 0, "MEAN_MOTION_DOT": 1.1e-07, "MEAN_MOTION_DDOT": 0}, "tle": {"line1": "1 28358U 04022A   25361.11353884  .00000011  00000+0  00000+0 0  9994", "line2": "2 28358   0.0165  51.4001 0001271 251.2068 193.1572  1.00270144 78839"}}, "geometry": {"type": "Point", "coordinates": [-135.81632466483256, -0.004967770991842617]}}, {"type": "Feature", "properties": {"norad_id": 28626, "name": "XM-3 (RHYTHM)", "group": "intelsat", "lat": -0.04606754286755278, "lon": -90.0789453646563, "alt_km": 36159.41655235721, "timestamp": "2025-12-27T08:36:18.033601+00:00", "meta": {"OBJECT_NAME": "XM-3 (RHYTHM)", "OBJECT_ID": "2005-008A", "EPOCH": "2025-12-27T02:56:50.978400", "MEAN_MOTION": 0.98950674, "ECCENTRICITY": 0.0002297, "INCLINATION": 0.2097, "RA_OF_ASC_NODE": 82.3398, "ARG_OF_PERICENTER": 271.0604, "MEAN_ANOMALY": 192.5803, "EPHEMERIS_TYPE": 0, "CLASSIFICATION_TYPE": "U", "NORAD_CAT_ID": 28626, "ELEMENT_SET_NO": 999, "REV_AT_EPOCH": 4089, "BSTAR": 0, "MEAN_MOTION_DOT": 7.4e-07, "MEAN_MOTION_DDOT": 0}, "tle": {"line1": "1 28626U 05008A   25361.12281225  .00000074  00000+0  00000+0 0  9996", "line2": "2 28626   0.2097  82.3398 0002297 271.0604 192.5803  0.98950674 40894"}}, "geometry": {"type": "Point", "coordinates": [-90.0789453646563, -0.04606754286755278]}}]}